GSAT0209 (GALILEO 12)   
1 41174U 15079A   21291.77511721  .00000050  00000-0  00000-0 0  9990
2 41174  55.0864 148.0474 0002710 341.2360  18.8612  1.70473025 35759
GSAT0208 (GALILEO 11)   
1 41175U 15079B   21291.99478423  .00000050  00000-0  00000-0 0  9996
2 41175  55.0844 148.0402 0002071 352.6983   7.4062  1.70473003 36172
ORBCOMM FM114           
1 41179U 15081A   21292.70248262 -.00000101  00000-0  14993-4 0  9997
2 41179  47.0027  98.1040 0002309 339.5326  20.5465 14.54932983309755
ORBCOMM FM110           
1 41182U 15081D   21292.74831576 -.00000075  00000-0  20804-4 0  9999
2 41182  47.0014  97.3973 0001422 191.3127 168.7725 14.54928949309750
ORBCOMM FM118           
1 41183U 15081E   21292.72575913 -.00000047  00000-0  27296-4 0  9999
2 41183  47.0034  97.6362 0001352 195.9691 164.1151 14.54902554309764
ORBCOMM FM112           
1 41184U 15081F   21292.50108172  .00000090  00000-0  58998-4 0  9995
2 41184  47.0009   7.6491 0001016  29.6302 330.4639 14.54927749310865
ORBCOMM FM113           
1 41185U 15081G   21292.54637110  .00000086  00000-0  57923-4 0  9991
2 41185  47.0032   7.5261 0000692  53.9505 306.1443 14.54931155310937
ORBCOMM FM115           
1 41186U 15081H   21292.58206255 -.00000016  00000-0  32839-4 0  9991
2 41186  46.9992 252.1954 0000694 326.9439  33.1404 14.58757768312441
ORBCOMM FM108           
1 41187U 15081J   21292.64163606  .00000031  00000-0  45310-4 0  9995
2 41187  47.0046 278.0256 0002967 299.4089  60.6499 14.54934349312106
ORBCOMM FM117           
1 41188U 15081K   21292.67656668  .00000030  00000-0  45267-4 0  9994
2 41188  47.0007 277.0797 0003486 313.6373  46.4221 14.54925091312126
ORBCOMM FM116           
1 41189U 15081L   21292.52403553  .00000093  00000-0  59539-4 0  9998
2 41189  47.0036   7.4884 0000987  30.8121 329.2821 14.54927612310850
EXPRESS-AMU1            
1 41191U 15082A   21292.66676965  .00000149  00000-0  00000+0 0  9992
2 41191   0.0180 241.8031 0002594 334.2260  88.4640  1.00271082 21448
GAOFEN 4                
1 41194U 15083A   21292.75241792 -.00000341  00000-0  00000+0 0  9997
2 41194   0.0342 325.6913 0003754 256.7649 182.5701  1.00270467 21438
BELINTERSAT-1           
1 41238U 16001A   21292.56855178  .00000100  00000-0  00000-0 0  9998
2 41238   0.0301 292.3162 0002063 223.3593 128.7788  1.00269971 21196
JASON-3                 
1 41240U 16002A   21292.49826284 -.00000065  00000-0 -16065-4 0  9994
2 41240  66.0413  69.3690 0007583 267.5456  92.4691 12.80930981269182
IRNSS-1E                
1 41241U 16003A   21289.88244875 -.00000283  00000-0  00000-0 0  9994
2 41241  29.4379  88.4305 0021612 178.2183 188.4282  1.00276898 20992
EUTELSAT 9B             
1 41310U 16005A   21292.73314271  .00000056  00000-0  00000+0 0  9995
2 41310   0.0552  58.1980 0005963 191.4261  51.7519  1.00274092 21041
NAVSTAR 76 (USA 266)    
1 41328U 16007A   21291.21590921  .00000046  00000-0  00000-0 0  9996
2 41328  54.8667 157.0880 0052857 225.0816 134.5835  2.00556856 41681
COSMOS 2514 [GLONASS-M] 
1 41330U 16008A   21292.27864875 -.00000087  00000-0  00000-0 0  9995
2 41330  65.5812  10.8483 0011721 208.1757 154.1200  2.13102812 44355
KMS 4                   
1 41332U 16009A   21292.45275646  .00006487  00000-0  17961-3 0  9996
2 41332  97.2734   5.0536 0022220 114.6205 245.7358 15.37072752318761
SENTINEL-3A             
1 41335U 16011A   21292.79564390  .00000014  00000-0  23633-4 0  9990
2 41335  98.6276 358.5470 0001130 114.2416 245.8883 14.26737762295450
HORYU-4                 
1 41340U 16012D   21292.76023220  .00001004  00000-0  68011-4 0  9995
2 41340  31.0044  94.4871 0013868 327.2992  32.6785 15.02085441311498
SES-9                   
1 41380U 16013A   21292.75294123 -.00000351  00000-0  00000+0 0  9995
2 41380   0.0224 273.4770 0001384 233.9122 260.4323  1.00271871 20698
EUTELSAT 65 WEST A      
1 41382U 16014A   21292.63799403 -.00000283  00000-0  00000+0 0  9990
2 41382   0.0553  30.5101 0002105 163.5335 358.7885  1.00272934 20584
IRNSS-1F                
1 41384U 16015A   21292.73776525  .00000156  00000-0  00000+0 0  9992
2 41384   1.9734 176.7806 0017845 183.9257 325.8334  1.00274968 20615
RESURS P3               
1 41386U 16016A   21292.88572588  .00001472  00000-0  47807-4 0  9997
2 41386  97.2190  16.4901 0004352 152.7276 342.5212 15.33494459313426
COSMOS 2515             
1 41394U 16020A   21292.86530566  .00000341  00000-0  32975-4 0  9993
2 41394  97.8382 242.4288 0032755 277.3401  82.4102 14.99072434304890
BEIDOU IGSO-6           
1 41434U 16021A   21292.73184225 -.00000161  00000-0  00000+0 0  9992
2 41434  57.7495  55.3401 0043825 210.9549 120.1605  1.00288619 20412
SENTINEL-1B             
1 41456U 16025A   21292.73287928 -.00000077  00000-0 -66479-5 0  9999
2 41456  98.1817 298.5658 0001320  86.4825 273.6518 14.59197769292089
MICROSCOPE              
1 41457U 16025B   21292.63706558  .00000199  00000-0  57433-4 0  9996
2 41457  98.2514 296.1062 0001877  76.4846 283.6560 14.54316440291022
E-ST@R-II               
1 41459U 16025D   21292.86028952  .00003118  00000-0  15212-3 0  9990
2 41459  98.1581  76.6723 0157536   3.6024 356.6301 15.08891862301174
AAUSAT 4                
1 41460U 16025E   21292.82096354  .00004368  00000-0  19984-3 0  9997
2 41460  98.1570  81.1648 0143791 345.3857  14.3287 15.12330917301501
MVL-300                 
1 41464U 16026A   21292.89163372  .00001471  00000-0  49170-4 0  9997
2 41464  97.0800 165.5797 0010579 322.7628  92.7022 15.32473265306095
AIST-2D (RS-48)         
1 41465U 16026B   21292.84062796  .00004461  00000-0  12512-3 0  9992
2 41465  97.0864 172.6071 0009014 290.7709 137.0279 15.37039184306535
IRNSS-1G                
1 41469U 16027A   21292.75712770 -.00000339  00000-0  00000+0 0  9997
2 41469   1.9355 180.2429 0002887 322.2899 287.8668  1.00265625 20111
JCSAT-2B                
1 41471U 16028A   21292.71172116 -.00000172  00000-0  00000+0 0  9996
2 41471   0.0215 222.8483 0001952 356.8872 218.8746  1.00270173 20023
YAOGAN 30               
1 41473U 16029A   21292.86550928  .00000958  00000-0  14491-3 0  9990
2 41473  97.7938 336.0352 0014756 321.4010  38.6069 14.76354405292655
GSAT0211 (GALILEO 14)   
1 41549U 16030A   21292.11423948 -.00000028  00000-0  00000-0 0  9992
2 41549  55.9341 268.5310 0005123 308.3267  51.5906  1.70474663 33658
GSAT0210 (GALILEO 13)   
1 41550U 16030B   21291.82038748 -.00000028  00000-0  00000-0 0  9991
2 41550  55.9336 268.5406 0004867 284.2944  75.6160  1.70474632 33642
THAICOM 8               
1 41552U 16031A   21292.67522983 -.00000128  00000-0  00000+0 0  9997
2 41552   0.1081  79.7308 0000886  95.3580 174.9243  1.00271627 19720
COSMOS 2516 [GLONASS-M] 
1 41554U 16032A   21292.28736245 -.00000029  00000-0  00000-0 0  9996
2 41554  63.9692 249.8313 0015099 222.6814  44.2913  2.13107099 41959
ZIYUAN 3-2 (ZY 3-2)     
1 41556U 16033A   21292.80014550 -.00031553  00000-0 -14160-2 0  9996
2 41556  97.3127   1.6479 0004932  85.1526  37.2652 15.21261694299310
NUSAT-1 (FRESCO)        
1 41557U 16033B   21292.82123955  .00004277  00000-0  14871-3 0  9990
2 41557  97.3929  26.1130 0013471 147.9156   5.5470 15.30186352300542
NUSAT-2 (BATATA)        
1 41558U 16033C   21292.84679424  .00004556  00000-0  14829-3 0  9993
2 41558  97.4058  30.5514 0012647 140.2099   8.3060 15.32305108300762
COSMOS 2517 (GEO-IK 2)  
1 41579U 16034A   21292.67877304 -.00000161  00000-0 -10202-3 0  9996
2 41579  99.2326 304.5673 0001417 116.7214 243.4085 13.85906668271943
INTELSAT 31 (IS-31)     
1 41581U 16035A   21292.49704306 -.00000158  00000-0  00000-0 0  9998
2 41581   0.0162 236.1915 0001895 325.6556 270.2389  1.00272102 19547
BEIDOU-2 G7             
1 41586U 16037A   21292.75337733 -.00000359  00000-0  00000+0 0  9992
2 41586   1.9668  69.4179 0007781  11.7567 329.0678  1.00273025 19726
ABS-2A (MONGOLSAT-1)    
1 41588U 16038A   21292.67444485 -.00000089  00000-0  00000+0 0  9999
2 41588   0.0229 215.1567 0001984 268.1419 222.5593  1.00268254 19647
EUTELSAT 117 WEST B     
1 41589U 16038B   21292.64850793 -.00000018  00000-0  00000+0 0  9992
2 41589   0.0166  75.2147 0000034 126.1535 303.4550  1.00271420 19645
BRISAT                  
1 41591U 16039A   21292.68953361 -.00000203  00000-0  00000+0 0  9991
2 41591   0.0165 252.6114 0002208 311.5002 223.0153  1.00271448 19585
ECHOSTAR 18             
1 41592U 16039B   21292.63799403 -.00000289  00000-0  00000+0 0  9996
2 41592   0.0212 222.4252 0001748 352.0295 342.1899  1.00269652 19550
CARTOSAT-2C             
1 41599U 16040A   21292.81345318  .00001172  00000-0  58608-4 0  9990
2 41599  97.3851 349.5474 0012597 306.4790 187.9493 15.19317912295390
SKYSAT-C1               
1 41601U 16040C   21292.71606347  .00003912  00000-0  10002-3 0  9994
2 41601  97.1827   7.9166 0001906 125.0340 235.1085 15.40031159296941
GHGSAT-D                
1 41602U 16040D   21292.67161394  .00001999  00000-0  84691-4 0  9997
2 41602  97.2448 342.0800 0006993 266.1711  93.8728 15.24266213295967
LAPAN-A3                
1 41603U 16040E   21292.88045404  .00000355  00000-0  19424-4 0  9991
2 41603  97.2425 334.9963 0011711 289.0393 190.3331 15.20132111295482
BIROS                   
1 41604U 16040F   21292.66617822  .00001237  00000-0  55696-4 0  9998
2 41604  97.2482 340.8907 0010344 261.9999  98.0064 15.22854625295808
M3MSAT                  
1 41605U 16040G   21292.41659070  .00001402  00000-0  63949-4 0  9997
2 41605  97.2474 338.8995 0010188 281.0608  78.9482 15.22187500295655
SWAYAM                  
1 41607U 16040J   21292.41239340  .00005264  00000-0  20295-3 0  9999
2 41607  97.2543 344.9175 0010691 256.9825 103.0220 15.26691529295951
FLOCK 2P-9              
1 41610U 16040M   21292.70405271  .00003297  00000-0  12020-3 0  9994
2 41610  97.2676 351.4839 0008401 231.6538 128.3948 15.28839980296224
